NORAD_CAT_ID,OBJECT_NAME,OBJECT_TYPE,EPOCH,MEAN_MOTION,ECCENTRICITY,INCLINATION,RA_OF_ASC_NODE,ARG_OF_PERICENTER,MEAN_ANOMALY,BSTAR,MEAN_MOTION_DOT,MEAN_MOTION_DDOT,TLE_LINE0,TLE_LINE1,TLE_LINE2,SEMIMAJOR_AXIS,PERIOD,APOGEE,PERIGEE,DECAYED
55435.0,STARLINK-5626,PAYLOAD,2023-12-24 22:12:15,14.98330684,0.0002435,70.0008,336.0503,254.1721,105.917,0.00014385,1.624e-05,0.0,0 STARLINK-5626,1 55435U 23014AW  23358.92517372  .00001624  00000-0  14385-3 0  9996,2 55435  70.0008 336.0503 0002435 254.1721 105.9170 14.98330684 50379,6950.191,96.107,573.748,570.363,0.0
55435.0,STARLINK-5626,PAYLOAD,2023-12-25 07:49:03,14.98334776,0.0002487,70.0006,335.0401,254.9804,105.108,8.7816e-05,9.55e-06,0.0,0 STARLINK-5626,1 55435U 23014AW  23359.32573290  .00000955  00000-0  87816-4 0  9998,2 55435  70.0006 335.0401 0002487 254.9804 105.1080 14.98334776 49499,6950.178,96.107,573.772,570.315,0.0
55435.0,STARLINK-5626,PAYLOAD,2023-12-26 03:02:40,14.98328942,0.0002446,70.001,333.0212,251.9854,108.1038,-1.234e-05,-2.4e-06,0.0,0 STARLINK-5626,1 55435U 23014AW  23360.12685692 -.00000240  00000-0 -12340-4 0  9997,2 55435  70.0010 333.0212 0002446 251.9854 108.1038 14.98328942 49617,6950.196,96.107,573.761,570.361,0.0
55435.0,STARLINK-5626,PAYLOAD,2023-12-26 07:51:04,14.98329196,0.0002442,70.0007,332.5136,267.9067,92.1813,6.7351e-05,7.11e-06,0.0,0 STARLINK-5626,1 55435U 23014AW  23360.32713629  .00000711  00000-0  67351-4 0  9994,2 55435  70.0007 332.5136 0002442 267.9067  92.1813 14.98329196 50584,6950.195,96.107,573.758,570.363,0.0
55435.0,STARLINK-5626,PAYLOAD,2023-12-27 03:04:41,14.98326374,0.0002795,70.0004,330.4952,267.0163,93.0677,-9.8731e-06,-2.11e-06,0.0,0 STARLINK-5626,1 55435U 23014AW  23361.12825895 -.00000211  00000-0 -98731-5 0  9996,2 55435  70.0004 330.4952 0002795 267.0163  93.0677 14.98326374 49764,6950.204,96.107,574.012,570.127,0.0
55435.0,STARLINK-5626,PAYLOAD,2023-12-27 07:53:05,14.98332815,0.0002588,70.0003,329.9898,265.4158,94.6705,3.1221e-05,2.8e-06,0.0,0 STARLINK-5626,1 55435U 23014AW  23361.32853394  .00000280  00000-0  31221-4 0  9997,2 55435  70.0003 329.9898 0002588 265.4158  94.6705 14.98332815 49790,6950.184,96.107,573.848,570.25,0.0
55435.0,STARLINK-5626,PAYLOAD,2023-12-27 22:18:18,14.98326694,0.0002357,70.0009,328.4746,262.5535,97.5356,7.9701e-05,8.58e-06,0.0,0 STARLINK-5626,1 55435U 23014AW  23361.92937742  .00000858  00000-0  79701-4 0  9999,2 55435  70.0009 328.4746 0002357 262.5535  97.5356 14.98326694 50821,6950.203,96.107,573.706,570.43,0.0
55435.0,STARLINK-5626,PAYLOAD,2023-12-28 03:06:42,14.98323065,0.0002565,70.0007,327.9695,264.6926,95.394,6.1349e-05,6.39e-06,0.0,0 STARLINK-5626,1 55435U 23014AW  23362.12966068  .00000639  00000-0  61349-4 0  9991,2 55435  70.0007 327.9695 0002565 264.6926  95.3940 14.98323065 49916,6950.214,96.107,573.862,570.297,0.0
55435.0,STARLINK-5626,PAYLOAD,2023-12-28 07:55:06,14.98324634,0.0002508,70.0008,327.4644,264.6666,95.4207,7.6914e-05,8.25e-06,0.0,0 STARLINK-5626,1 55435U 23014AW  23362.32994021  .00000825  00000-0  76914-4 0  9994,2 55435  70.0008 327.4644 0002508 264.6666  95.4207 14.98324634 50882,6950.209,96.107,573.818,570.331,0.0
55435.0,STARLINK-5626,PAYLOAD,2023-12-28 22:20:19,14.9832833,0.0002851,70.0005,325.949,261.0792,99.0044,7.082e-05,7.52e-06,0.0,0 STARLINK-5626,1 55435U 23014AW  23362.93077627  .00000752  00000-0  70820-4 0  9994,2 55435  70.0005 325.9490 0002851 261.0792  99.0044 14.98328330 50979,6950.198,96.107,574.045,570.082,0.0
55435.0,STARLINK-5626,PAYLOAD,2023-12-29 03:08:43,14.98328388,0.0002582,70.0005,325.4439,264.8884,95.1981,6.5497e-05,6.89e-06,0.0,0 STARLINK-5626,1 55435U 23014AW  23363.13105713  .00000689  00000-0  65497-4 0  9998,2 55435  70.0005 325.4439 0002582 264.8884  95.1981 14.98328388 50061,6950.198,96.107,573.857,570.268,0.0
55435.0,STARLINK-5626,PAYLOAD,2023-12-29 07:57:07,14.98331218,0.0002382,70.001,324.939,259.0118,101.0773,0.00010576,1.169e-05,0.0,0 STARLINK-5626,1 55435U 23014AW  23363.33133470  .00001169  00000-0  10576-3 0  9992,2 55435  70.0010 324.9390 0002382 259.0118 101.0773 14.98331218 51031,6950.189,96.107,573.71,570.399,0.0
55435.0,STARLINK-5626,PAYLOAD,2023-12-29 22:22:19,14.98331289,0.0002413,70.0009,323.424,265.0998,94.9886,0.00011869,1.324e-05,0.0,0 STARLINK-5626,1 55435U 23014AW  23363.93217288  .00001324  00000-0  11869-3 0  9997,2 55435  70.0009 323.4240 0002413 265.0998  94.9886 14.98331289 51128,6950.189,96.107,573.731,570.377,0.0
55435.0,STARLINK-5626,PAYLOAD,2023-12-30 03:10:44,14.98328504,0.0002485,70.0004,322.9187,261.2374,98.8504,6.4281e-05,6.74e-06,0.0,0 STARLINK-5626,1 55435U 23014AW  23364.13245592  .00000674  00000-0  64281-4 0  9993,2 55435  70.0004 322.9187 0002485 261.2374  98.8504 14.98328504 50217,6950.198,96.107,573.79,570.335,0.0
55435.0,STARLINK-5626,PAYLOAD,2023-12-30 06:23:00,14.98332308,0.0002433,70.0009,322.5835,256.1557,103.9331,9.5547e-05,1.047e-05,0.0,0 STARLINK-5626,1 55435U 23014AW  23364.26597280  .00001047  00000-0  95547-4 0  9995,2 55435  70.0009 322.5835 0002433 256.1557 103.9331 14.98332308 51176,6950.186,96.107,573.742,570.36,0.0
55435.0,STARLINK-5626,PAYLOAD,2023-12-30 22:24:20,14.983281,0.0002694,70.0008,320.9,261.2833,98.8021,3.4459e-05,3.18e-06,0.0,0 STARLINK-5626,1 55435U 23014AW  23364.93357518  .00000318  00000-0  34459-4 0  9992,2 55435  70.0008 320.9000 0002694 261.2833  98.8021 14.98328100 51278,6950.199,96.107,573.936,570.191,0.0
55435.0,STARLINK-5626,PAYLOAD,2023-12-31 03:12:45,14.98326352,0.0002641,70.0015,320.3963,253.2914,106.7955,4.2581e-05,4.15e-06,0.0,0 STARLINK-5626,1 55435U 23014AW  23365.13385663  .00000415  00000-0  42581-4 0  9990,2 55435  70.0015 320.3963 0002641 253.2914 106.7955 14.98326352 50362,6950.204,96.107,573.905,570.234,0.0
55435.0,STARLINK-5626,PAYLOAD,2023-12-31 22:26:21,14.98330116,0.0002635,70.0004,318.3739,263.0364,97.0495,1.028e-05,3e-07,0.0,0 STARLINK-5626,1 55435U 23014AW  23365.93497472  .00000030  00000-0  10280-4 0  9994,2 55435  70.0004 318.3739 0002635 263.0364  97.0495 14.98330116 51421,6950.193,96.107,573.889,570.226,0.0
55435.0,STARLINK-5626,PAYLOAD,2024-01-01 03:14:45,14.98330687,0.0002704,70.0005,317.8699,264.3544,95.7307,1.5001e-05,8.6e-07,0.0,0 STARLINK-5626,1 55435U 23014AW  24001.13525429  .00000086  00000-0  15001-4 0  9995,2 55435  70.0005 317.8699 0002704 264.3544  95.7307 14.98330687 50511,6950.191,96.107,573.935,570.176,0.0
55435.0,STARLINK-5626,PAYLOAD,2024-01-01 06:27:01,14.98332355,0.0002626,70.0003,317.5324,265.0449,95.041,4.7745e-05,4.77e-06,0.0,0 STARLINK-5626,1 55435U 23014AW  24001.26877222  .00000477  00000-0  47745-4 0  9994,2 55435  70.0003 317.5324 0002626 265.0449  95.0410 14.98332355 51474,6950.186,96.107,573.876,570.225,0.0
55435.0,STARLINK-5626,PAYLOAD,2024-01-01 22:28:22,14.98330534,0.0002767,70.0001,315.8494,267.031,93.0532,8.8236e-05,9.6e-06,0.0,0 STARLINK-5626,1 55435U 23014AW  24001.93637176  .00000960  00000-0  88236-4 0  9997,2 55435  70.0001 315.8494 0002767 267.0310  93.0532 14.98330534 51577,6950.191,96.107,573.979,570.133,0.0
55435.0,STARLINK-5626,PAYLOAD,2024-01-02 03:16:46,14.98328871,0.0002854,69.9999,315.3439,269.7385,90.3447,0.00011677,1.301e-05,0.0,0 STARLINK-5626,1 55435U 23014AW  24002.13665200  .00001301  00000-0  11677-3 0  9993,2 55435  69.9999 315.3439 0002854 269.7385  90.3447 14.98328871 50667,6950.196,96.107,574.045,570.078,0.0
55435.0,STARLINK-5626,PAYLOAD,2024-01-02 06:29:02,14.98332837,0.000275,70.0004,315.0079,268.7863,91.2981,0.00015508,1.758e-05,0.0,0 STARLINK-5626,1 55435U 23014AW  24002.27016867  .00001758  00000-0  15508-3 0  9990,2 55435  70.0004 315.0079 0002750 268.7863  91.2981 14.98332837 51626,6950.184,96.107,573.96,570.138,0.0
55435.0,STARLINK-5626,PAYLOAD,2024-01-02 22:30:23,14.98331882,0.0002629,70.0007,313.3256,264.7406,95.3453,4.0242e-05,3.87e-06,0.0,0 STARLINK-5626,1 55435U 23014AW  24002.93777069  .00000387  00000-0  40242-4 0  9992,2 55435  70.0007 313.3256 0002629 264.7406  95.3453 14.98331882 51720,6950.187,96.107,573.879,570.225,0.0
55435.0,STARLINK-5626,PAYLOAD,2024-01-03 03:18:47,14.98332051,0.0002658,70.0006,312.8205,265.6265,94.459,2.3814e-05,1.91e-06,0.0,0 STARLINK-5626,1 55435U 23014AW  24003.13805070  .00000191  00000-0  23814-4 0  9998,2 55435  70.0006 312.8205 0002658 265.6265  94.4590 14.98332051 50812,6950.187,96.107,573.899,570.204,0.0
55435.0,STARLINK-5626,PAYLOAD,2024-01-03 06:31:03,14.98332945,0.000263,70.0007,312.4842,265.7899,94.2959,5.6768e-05,5.85e-06,0.0,0 STARLINK-5626,1 55435U 23014AW  24003.27156912  .00000585  00000-0  56768-4 0  9998,2 55435  70.0007 312.4842 0002630 265.7899  94.2959 14.98332945 51775,6950.184,96.107,573.877,570.221,0.0
55435.0,STARLINK-5626,PAYLOAD,2024-01-03 22:32:24,14.98329791,0.0002587,70.001,310.8022,253.3783,106.7092,1.873e-05,1.31e-06,0.0,0 STARLINK-5626,1 55435U 23014AW  24003.93917001  .00000131  00000-0  18730-4 0  9999,2 55435  70.0010 310.8022 0002587 253.3783 106.7092 14.98329791 51870,6950.194,96.107,573.857,570.261,0.0
55435.0,STARLINK-5626,PAYLOAD,2024-01-04 03:20:48,14.98330781,0.0002598,70.0011,310.2981,252.332,107.7555,3.2966e-05,3e-06,0.0,0 STARLINK-5626,1 55435U 23014AW  24004.13944917  .00000300  00000-0  32966-4 0  9993,2 55435  70.0011 310.2981 0002598 252.3320 107.7555 14.98330781 50962,6950.19,96.107,573.861,570.25,0.0
55435.0,STARLINK-5626,PAYLOAD,2024-01-04 06:33:04,14.98330915,0.0002715,70.0009,309.9604,263.5457,96.5393,5.8278e-05,6.02e-06,0.0,0 STARLINK-5626,1 55435U 23014AW  24004.27296869  .00000602  00000-0  58278-4 0  9993,2 55435  70.0009 309.9604 0002715 263.5457  96.5393 14.98330915 51923,6950.19,96.107,573.942,570.168,0.0
55435.0,STARLINK-5626,PAYLOAD,2024-01-04 22:34:25,14.98326696,0.0002705,70.0011,308.2759,268.1061,91.9788,1.9592e-06,-7e-07,0.0,0 STARLINK-5626,1 55435U 23014AW  24004.94057241 -.00000070  00000-0  19592-5 0  9993,2 55435  70.0011 308.2759 0002705 268.1061  91.9788 14.98326696 52020,6950.203,96.107,573.948,570.188,0.0
